[{"OBJECT_NAME":"STARLINK-37186","OBJECT_ID":"2026-073R","EPOCH":"2026-04-22T14:53:24.942912","MEAN_MOTION":15.80894803,"ECCENTRICITY":8.07e-5,"INCLINATION":97.2841,"RA_OF_ASC_NODE":310.5837,"ARG_OF_PERICENTER":89.9962,"MEAN_ANOMALY":270.1398,"EPHEMERIS_TYPE":0,"CLASSIFICATION_TYPE":"U","NORAD_CAT_ID":68617,"ELEMENT_SET_NO":999,"REV_AT_EPOCH":247,"BSTAR":0.0005947,"MEAN_MOTION_DOT":0.00115707,"MEAN_MOTION_DDOT":0},{"OBJECT_NAME":"STARLINK-37179","OBJECT_ID":"2026-073S","EPOCH":"2026-04-22T14:52:20.121312","MEAN_MOTION":15.80862812,"ECCENTRICITY":8.24e-5,"INCLINATION":97.2845,"RA_OF_ASC_NODE":310.5853,"ARG_OF_PERICENTER":70.7324,"MEAN_ANOMALY":289.4034,"EPHEMERIS_TYPE":0,"CLASSIFICATION_TYPE":"U","NORAD_CAT_ID":68618,"ELEMENT_SET_NO":999,"REV_AT_EPOCH":247,"BSTAR":0.00063323,"MEAN_MOTION_DOT":0.00123138,"MEAN_MOTION_DDOT":0},{"OBJECT_NAME":"STARLINK-37226","OBJECT_ID":"2026-073T","EPOCH":"2026-04-22T13:20:30.221376","MEAN_MOTION":15.79318308,"ECCENTRICITY":0.0001603,"INCLINATION":97.2846,"RA_OF_ASC_NODE":310.5188,"ARG_OF_PERICENTER":12.0402,"MEAN_ANOMALY":348.0904,"EPHEMERIS_TYPE":0,"CLASSIFICATION_TYPE":"U","NORAD_CAT_ID":68619,"ELEMENT_SET_NO":999,"REV_AT_EPOCH":246,"BSTAR":-0.0051693,"MEAN_MOTION_DOT":-0.00840591,"MEAN_MOTION_DDOT":0},{"OBJECT_NAME":"STARLINK-37211","OBJECT_ID":"2026-073U","EPOCH":"2026-04-21T22:07:28.900128","MEAN_MOTION":15.80842868,"ECCENTRICITY":0.0001327,"INCLINATION":97.2849,"RA_OF_ASC_NODE":309.8509,"ARG_OF_PERICENTER":82.8537,"MEAN_ANOMALY":277.2882,"EPHEMERIS_TYPE":0,"CLASSIFICATION_TYPE":"U","NORAD_CAT_ID":68620,"ELEMENT_SET_NO":999,"REV_AT_EPOCH":236,"BSTAR":0.0010112,"MEAN_MOTION_DOT":0.00198257,"MEAN_MOTION_DDOT":0},{"OBJECT_NAME":"STARLINK-37269","OBJECT_ID":"2026-073V","EPOCH":"2026-04-22T13:39:52.958880","MEAN_MOTION":15.75210043,"ECCENTRICITY":0.0001646,"INCLINATION":97.2848,"RA_OF_ASC_NODE":310.5008,"ARG_OF_PERICENTER":47.8696,"MEAN_ANOMALY":312.2709,"EPHEMERIS_TYPE":0,"CLASSIFICATION_TYPE":"U","NORAD_CAT_ID":68621,"ELEMENT_SET_NO":999,"REV_AT_EPOCH":246,"BSTAR":0.000298,"MEAN_MOTION_DOT":0.00044591,"MEAN_MOTION_DDOT":0},{"OBJECT_NAME":"STARLINK-37252","OBJECT_ID":"2026-073W","EPOCH":"2026-04-22T11:44:37.044096","MEAN_MOTION":15.80921547,"ECCENTRICITY":0.0001842,"INCLINATION":97.2841,"RA_OF_ASC_NODE":310.4565,"ARG_OF_PERICENTER":59.0568,"MEAN_ANOMALY":301.0881,"EPHEMERIS_TYPE":0,"CLASSIFICATION_TYPE":"U","NORAD_CAT_ID":68622,"ELEMENT_SET_NO":999,"REV_AT_EPOCH":245,"BSTAR":0.0012931,"MEAN_MOTION_DOT":0.00256191,"MEAN_MOTION_DDOT":0},{"OBJECT_NAME":"STARLINK-37284","OBJECT_ID":"2026-073X","EPOCH":"2026-04-22T14:46:55.474176","MEAN_MOTION":15.80859174,"ECCENTRICITY":4.72e-5,"INCLINATION":97.2842,"RA_OF_ASC_NODE":310.5911,"ARG_OF_PERICENTER":48.2915,"MEAN_ANOMALY":311.8393,"EPHEMERIS_TYPE":0,"CLASSIFICATION_TYPE":"U","NORAD_CAT_ID":68623,"ELEMENT_SET_NO":999,"REV_AT_EPOCH":247,"BSTAR":0.00063105,"MEAN_MOTION_DOT":0.00122688,"MEAN_MOTION_DDOT":0},{"OBJECT_NAME":"STARLINK-37231","OBJECT_ID":"2026-073Y","EPOCH":"2026-04-22T13:36:50.055264","MEAN_MOTION":15.75198032,"ECCENTRICITY":0.0001499,"INCLINATION":97.2849,"RA_OF_ASC_NODE":310.5038,"ARG_OF_PERICENTER":91.4806,"MEAN_ANOMALY":268.6631,"EPHEMERIS_TYPE":0,"CLASSIFICATION_TYPE":"U","NORAD_CAT_ID":68624,"ELEMENT_SET_NO":999,"REV_AT_EPOCH":246,"BSTAR":0.0002745,"MEAN_MOTION_DOT":0.00041025,"MEAN_MOTION_DDOT":0},{"OBJECT_NAME":"STARLINK-37249","OBJECT_ID":"2026-073Z","EPOCH":"2026-04-21T23:33:15.489792","MEAN_MOTION":15.80768408,"ECCENTRICITY":7.1e-5,"INCLINATION":97.285,"RA_OF_ASC_NODE":309.923,"ARG_OF_PERICENTER":103.7568,"MEAN_ANOMALY":256.3779,"EPHEMERIS_TYPE":0,"CLASSIFICATION_TYPE":"U","NORAD_CAT_ID":68625,"ELEMENT_SET_NO":999,"REV_AT_EPOCH":237,"BSTAR":0.0010393,"MEAN_MOTION_DOT":0.00203192,"MEAN_MOTION_DDOT":0},{"OBJECT_NAME":"STARLINK-37285","OBJECT_ID":"2026-073AA","EPOCH":"2026-04-22T12:01:47.548128","MEAN_MOTION":15.75244929,"ECCENTRICITY":0.0001538,"INCLINATION":97.2848,"RA_OF_ASC_NODE":310.4398,"ARG_OF_PERICENTER":86.1586,"MEAN_ANOMALY":273.9855,"EPHEMERIS_TYPE":0,"CLASSIFICATION_TYPE":"U","NORAD_CAT_ID":68626,"ELEMENT_SET_NO":999,"REV_AT_EPOCH":245,"BSTAR":0.00072576,"MEAN_MOTION_DOT":0.00109786,"MEAN_MOTION_DDOT":0},{"OBJECT_NAME":"STP-S29A OBJECT A","OBJECT_ID":"2026-074A","EPOCH":"2026-04-22T08:35:10.629024","MEAN_MOTION":15.23308302,"ECCENTRICITY":0.001736,"INCLINATION":60.0199,"RA_OF_ASC_NODE":32.3947,"ARG_OF_PERICENTER":322.322,"MEAN_ANOMALY":37.6643,"EPHEMERIS_TYPE":0,"CLASSIFICATION_TYPE":"U","NORAD_CAT_ID":68627,"ELEMENT_SET_NO":999,"REV_AT_EPOCH":227,"BSTAR":0.00026659,"MEAN_MOTION_DOT":6.123e-5,"MEAN_MOTION_DDOT":0},{"OBJECT_NAME":"MISR-C-1","OBJECT_ID":"2026-074B","EPOCH":"2026-04-22T11:42:45.469728","MEAN_MOTION":15.2339656,"ECCENTRICITY":0.001589,"INCLINATION":60.0249,"RA_OF_ASC_NODE":31.9015,"ARG_OF_PERICENTER":325.4968,"MEAN_ANOMALY":34.508,"EPHEMERIS_TYPE":0,"CLASSIFICATION_TYPE":"U","NORAD_CAT_ID":68628,"ELEMENT_SET_NO":999,"REV_AT_EPOCH":228,"BSTAR":0.00024217,"MEAN_MOTION_DOT":5.547e-5,"MEAN_MOTION_DDOT":0},{"OBJECT_NAME":"RAWHIDE-1","OBJECT_ID":"2026-074C","EPOCH":"2026-04-22T11:36:35.460000","MEAN_MOTION":15.23866441,"ECCENTRICITY":0.0019331,"INCLINATION":60.0234,"RA_OF_ASC_NODE":31.8764,"ARG_OF_PERICENTER":330.3598,"MEAN_ANOMALY":29.6385,"EPHEMERIS_TYPE":0,"CLASSIFICATION_TYPE":"U","NORAD_CAT_ID":68629,"ELEMENT_SET_NO":999,"REV_AT_EPOCH":229,"BSTAR":0.00032875,"MEAN_MOTION_DOT":7.758e-5,"MEAN_MOTION_DDOT":0},{"OBJECT_NAME":"STPSAT-7","OBJECT_ID":"2026-074D","EPOCH":"2026-04-22T11:32:33.914112","MEAN_MOTION":15.24095011,"ECCENTRICITY":0.0017467,"INCLINATION":60.0235,"RA_OF_ASC_NODE":31.863,"ARG_OF_PERICENTER":334.9361,"MEAN_ANOMALY":25.087,"EPHEMERIS_TYPE":0,"CLASSIFICATION_TYPE":"U","NORAD_CAT_ID":68630,"ELEMENT_SET_NO":999,"REV_AT_EPOCH":228,"BSTAR":0.00018263,"MEAN_MOTION_DOT":4.205e-5,"MEAN_MOTION_DDOT":0},{"OBJECT_NAME":"STP-S29A OBJECT E","OBJECT_ID":"2026-074E","EPOCH":"2026-04-22T11:32:25.766592","MEAN_MOTION":15.2409053,"ECCENTRICITY":0.0018049,"INCLINATION":60.0228,"RA_OF_ASC_NODE":31.8602,"ARG_OF_PERICENTER":334.865,"MEAN_ANOMALY":25.155,"EPHEMERIS_TYPE":0,"CLASSIFICATION_TYPE":"U","NORAD_CAT_ID":68631,"ELEMENT_SET_NO":999,"REV_AT_EPOCH":229,"BSTAR":0.00013018,"MEAN_MOTION_DOT":2.913e-5,"MEAN_MOTION_DDOT":0},{"OBJECT_NAME":"RAWHIDE-2","OBJECT_ID":"2026-074F","EPOCH":"2026-04-22T11:25:10.245792","MEAN_MOTION":15.24680528,"ECCENTRICITY":0.0018383,"INCLINATION":60.0323,"RA_OF_ASC_NODE":31.8568,"ARG_OF_PERICENTER":339.5166,"MEAN_ANOMALY":20.5175,"EPHEMERIS_TYPE":0,"CLASSIFICATION_TYPE":"U","NORAD_CAT_ID":68632,"ELEMENT_SET_NO":999,"REV_AT_EPOCH":228,"BSTAR":0.00032781,"MEAN_MOTION_DOT":7.926e-5,"MEAN_MOTION_DDOT":0},{"OBJECT_NAME":"MISR-C-2","OBJECT_ID":"2026-074G","EPOCH":"2026-04-22T11:19:14.937024","MEAN_MOTION":15.2506353,"ECCENTRICITY":0.0019121,"INCLINATION":60.0228,"RA_OF_ASC_NODE":31.8143,"ARG_OF_PERICENTER":345.7446,"MEAN_ANOMALY":14.3093,"EPHEMERIS_TYPE":0,"CLASSIFICATION_TYPE":"U","NORAD_CAT_ID":68633,"ELEMENT_SET_NO":999,"REV_AT_EPOCH":228,"BSTAR":0.00028063,"MEAN_MOTION_DOT":6.824e-5,"MEAN_MOTION_DDOT":0}]
