STARLINK-37186
1 68617U 26073R   26112.62042758  .00115707  00000+0  59470-3 0  9990
2 68617  97.2841 310.5837 0000807  89.9962 270.1398 15.80894803  2475
STARLINK-37179
1 68618U 26073S   26112.61967733  .00123138  00000+0  63323-3 0  9998
2 68618  97.2845 310.5853 0000824  70.7324 289.4034 15.80862812  2472
STARLINK-37226
1 68619U 26073T   26112.55590534 -.00840591  00000+0 -51693-2 0  9990
2 68619  97.2846 310.5188 0001603  12.0402 348.0904 15.79318308  2468
STARLINK-37211
1 68620U 26073U   26111.92186227  .00198257  00000+0  10112-2 0  9996
2 68620  97.2849 309.8509 0001327  82.8537 277.2882 15.80842868  2360
STARLINK-37269
1 68621U 26073V   26112.56936295  .00044591  00000+0  29800-3 0  9992
2 68621  97.2848 310.5008 0001646  47.8696 312.2709 15.75210043  2461
STARLINK-37252
1 68622U 26073W   26112.48931764  .00256191  00000+0  12931-2 0  9997
2 68622  97.2841 310.4565 0001842  59.0568 301.0881 15.80921547  2453
STARLINK-37284
1 68623U 26073X   26112.61591984  .00122688  00000+0  63105-3 0  9992
2 68623  97.2842 310.5911 0000472  48.2915 311.8393 15.80859174  2470
STARLINK-37231
1 68624U 26073Y   26112.56724601  .00041025  00000+0  27450-3 0  9999
2 68624  97.2849 310.5038 0001499  91.4806 268.6631 15.75198032  2463
STARLINK-37249
1 68625U 26073Z   26111.98142928  .00203192  00000+0  10393-2 0  9993
2 68625  97.2850 309.9230 0000710 103.7568 256.3779 15.80768408  2372
STARLINK-37285
1 68626U 26073AA  26112.50124477  .00109786  00000+0  72576-3 0  9998
2 68626  97.2848 310.4398 0001538  86.1586 273.9855 15.75244929  2455
STP-S29A OBJECT A
1 68627U 26074A   26112.35776191  .00006123  00000+0  26659-3 0  9991
2 68627  60.0199  32.3947 0017360 322.3220  37.6643 15.23308302  2272
MISR-C-1
1 68628U 26074B   26112.48802627  .00005547  00000+0  24217-3 0  9997
2 68628  60.0249  31.9015 0015890 325.4968  34.5080 15.23396560  2284
RAWHIDE-1
1 68629U 26074C   26112.48374375  .00007758  00000+0  32875-3 0  9997
2 68629  60.0234  31.8764 0019331 330.3598  29.6385 15.23866441  2291
STPSAT-7
1 68630U 26074D   26112.48094808  .00004205  00000+0  18263-3 0  9998
2 68630  60.0235  31.8630 0017467 334.9361  25.0870 15.24095011  2288
STP-S29A OBJECT E
1 68631U 26074E   26112.48085378  .00002913  00000+0  13018-3 0  9998
2 68631  60.0228  31.8602 0018049 334.8650  25.1550 15.24090530  2295
RAWHIDE-2
1 68632U 26074F   26112.47581303  .00007926  00000+0  32781-3 0  9994
2 68632  60.0323  31.8568 0018383 339.5166  20.5175 15.24680528  2281
MISR-C-2
1 68633U 26074G   26112.47170066  .00006824  00000+0  28063-3 0  9999
2 68633  60.0228  31.8143 0019121 345.7446  14.3093 15.25063530  2285
